start=new Date('2022-02-11T00:00:00.000Z').valueOf();
sats=[{"MEAN_MOTION_DDOT":"0.0000000000000","PERIAPSIS":"348.322","RCS_SIZE":"LARGE","ECCENTRICITY":"0.00020690","APOAPSIS":"351.106","CENTER_NAME":"EARTH","MEAN_MOTION":"15.73216287","EPOCH":"2022-02-10T22:06:58.940928","LAUNCH_DATE":"2022-01-06","BSTAR":"0.00018278000000","MEAN_ANOMALY":"323.2261","OBJECT_TYPE":"PAYLOAD","TLE_LINE2":"2 50806  53.2166  25.7323 0002069  36.8901 323.2261 15.73216287  5556","SITE":"AFETR","REF_FRAME":"TEME","EPHEMERIS_TYPE":"0","OBJECT_NAME":"STARLINK-3335","DECAY_DATE":null,"ARG_OF_PERICENTER":"36.8901","GP_ID":"195715728","MEAN_ELEMENT_THEORY":"SGP4","CLASSIFICATION_TYPE":"U","ELEMENT_SET_NO":"999","SEMIMAJOR_AXIS":"6727.849","OBJECT_ID":"2022-001D","TIME_SYSTEM":"UTC","FILE":"3297147","INCLINATION":"53.2166","COUNTRY_CODE":"US","REV_AT_EPOCH":"555","RA_OF_ASC_NODE":"25.7323","NORAD_CAT_ID":"50806","PERIOD":"91.532","TLE_LINE1":"1 50806U 22001D   22041.92151552  .00025127  00000-0  18278-3 0  9999","MEAN_MOTION_DOT":"0.00025127"},{"APOAPSIS":"350.917","CENTER_NAME":"EARTH","MEAN_MOTION":"15.73179525","MEAN_MOTION_DDOT":"0.0000000000000","RCS_SIZE":"LARGE","PERIAPSIS":"348.720","ECCENTRICITY":"0.00016330","MEAN_ANOMALY":"290.6095","OBJECT_TYPE":"PAYLOAD","TLE_LINE2":"2 50807  53.2150  25.7513 0001633  44.6143 290.6095 15.73179525  3689","SITE":"AFETR","REF_FRAME":"TEME","EPOCH":"2022-02-10T22:00:00.999936","LAUNCH_DATE":"2022-01-06","BSTAR":"0.00061999000000","MEAN_ELEMENT_THEORY":"SGP4","CLASSIFICATION_TYPE":"U","ELEMENT_SET_NO":"999","SEMIMAJOR_AXIS":"6727.954","OBJECT_ID":"2022-001E","TIME_SYSTEM":"UTC","FILE":"3297147","INCLINATION":"53.2150","EPHEMERIS_TYPE":"0","OBJECT_NAME":"STARLINK-3353","DECAY_DATE":null,"ARG_OF_PERICENTER":"44.6143","GP_ID":"195716480","RA_OF_ASC_NODE":"25.7513","NORAD_CAT_ID":"50807","PERIOD":"91.534","TLE_LINE1":"1 50807U 22001E   22041.91667824  .00087224  00000-0  61999-3 0  9997","MEAN_MOTION_DOT":"0.00087224","COUNTRY_CODE":"US","REV_AT_EPOCH":"368"},{"RCS_SIZE":"LARGE","PERIAPSIS":"348.203","MEAN_MOTION_DDOT":"0.0000000000000","ECCENTRICITY":"0.00020980","APOAPSIS":"351.026","MEAN_MOTION":"15.73251046","CENTER_NAME":"EARTH","EPOCH":"2022-02-10T22:00:00.999936","BSTAR":"-0.00011328000000","LAUNCH_DATE":"2022-01-06","TLE_LINE2":"2 50808  53.2155  25.7553 0002098  28.3897 305.6127 15.73251046  3682","REF_FRAME":"TEME","SITE":"AFETR","MEAN_ANOMALY":"305.6127","OBJECT_TYPE":"PAYLOAD","DECAY_DATE":null,"OBJECT_NAME":"STARLINK-3355","EPHEMERIS_TYPE":"0","GP_ID":"195717229","ARG_OF_PERICENTER":"28.3897","OBJECT_ID":"2022-001F","MEAN_ELEMENT_THEORY":"SGP4","CLASSIFICATION_TYPE":"U","ELEMENT_SET_NO":"999","SEMIMAJOR_AXIS":"6727.750","INCLINATION":"53.2155","TIME_SYSTEM":"UTC","FILE":"3297147","REV_AT_EPOCH":"368","COUNTRY_CODE":"US","RA_OF_ASC_NODE":"25.7553","TLE_LINE1":"1 50808U 22001F   22041.91667824 -.00016525  00000-0 -11328-3 0  9997","MEAN_MOTION_DOT":"-0.00016525","NORAD_CAT_ID":"50808","PERIOD":"91.530"},{"OBJECT_ID":"2022-001G","CLASSIFICATION_TYPE":"U","MEAN_ELEMENT_THEORY":"SGP4","SEMIMAJOR_AXIS":"6727.942","ELEMENT_SET_NO":"999","INCLINATION":"53.2156","TIME_SYSTEM":"UTC","FILE":"3297147","OBJECT_NAME":"STARLINK-3232","DECAY_DATE":null,"EPHEMERIS_TYPE":"0","GP_ID":"195715978","ARG_OF_PERICENTER":"38.2637","RA_OF_ASC_NODE":"25.7557","TLE_LINE1":"1 50809U 22001G   22041.91667824  .00086177  00000-0  61257-3 0  9992","MEAN_MOTION_DOT":"0.00086177","NORAD_CAT_ID":"50809","PERIOD":"91.534","REV_AT_EPOCH":"368","COUNTRY_CODE":"US","APOAPSIS":"350.916","MEAN_MOTION":"15.73183712","CENTER_NAME":"EARTH","PERIAPSIS":"348.697","RCS_SIZE":"LARGE","MEAN_MOTION_DDOT":"0.0000000000000","ECCENTRICITY":"0.00016490","TLE_LINE2":"2 50809  53.2156  25.7557 0001649  38.2637 295.0596 15.73183712  3687","SITE":"AFETR","REF_FRAME":"TEME","MEAN_ANOMALY":"295.0596","OBJECT_TYPE":"PAYLOAD","EPOCH":"2022-02-10T22:00:00.999936","BSTAR":"0.00061257000000","LAUNCH_DATE":"2022-01-06"},{"EPOCH":"2022-02-10T22:00:00.999936","BSTAR":"0.00043077000000","LAUNCH_DATE":"2022-01-06","TLE_LINE2":"2 50810  53.2160  25.7522 0001452  27.5759 307.0575 15.73227824  3688","SITE":"AFETR","REF_FRAME":"TEME","MEAN_ANOMALY":"307.0575","OBJECT_TYPE":"PAYLOAD","RCS_SIZE":"LARGE","PERIAPSIS":"348.704","MEAN_MOTION_DDOT":"0.0000000000000","ECCENTRICITY":"0.00014520","APOAPSIS":"350.658","MEAN_MOTION":"15.73227824","CENTER_NAME":"EARTH","REV_AT_EPOCH":"368","COUNTRY_CODE":"US","RA_OF_ASC_NODE":"25.7522","MEAN_MOTION_DOT":"0.00060344","TLE_LINE1":"1 50810U 22001H   22041.91667824  .00060344  00000-0  43077-3 0  9992","NORAD_CAT_ID":"50810","PERIOD":"91.532","DECAY_DATE":null,"OBJECT_NAME":"STARLINK-3348","EPHEMERIS_TYPE":"0","GP_ID":"195716228","ARG_OF_PERICENTER":"27.5759","OBJECT_ID":"2022-001H","MEAN_ELEMENT_THEORY":"SGP4","CLASSIFICATION_TYPE":"U","ELEMENT_SET_NO":"999","SEMIMAJOR_AXIS":"6727.816","INCLINATION":"53.2160","TIME_SYSTEM":"UTC","FILE":"3297147"},{"EPOCH":"2022-02-10T22:00:00.999936","LAUNCH_DATE":"2022-01-06","BSTAR":"-0.00011546000000","MEAN_ANOMALY":"296.4360","OBJECT_TYPE":"PAYLOAD","TLE_LINE2":"2 50811  53.2150  25.7507 0001790  39.4948 296.4360 15.73242924  3689","REF_FRAME":"TEME","SITE":"AFETR","MEAN_MOTION_DDOT":"0.0000000000000","RCS_SIZE":"LARGE","PERIAPSIS":"348.434","ECCENTRICITY":"0.00017900","APOAPSIS":"350.842","CENTER_NAME":"EARTH","MEAN_MOTION":"15.73242924","COUNTRY_CODE":"US","REV_AT_EPOCH":"368","RA_OF_ASC_NODE":"25.7507","NORAD_CAT_ID":"50811","PERIOD":"91.531","MEAN_MOTION_DOT":"-0.00016823","TLE_LINE1":"1 50811U 22001J   22041.91667824 -.00016823  00000-0 -11546-3 0  9994","EPHEMERIS_TYPE":"0","OBJECT_NAME":"STARLINK-3347","DECAY_DATE":null,"ARG_OF_PERICENTER":"39.4948","GP_ID":"195716980","CLASSIFICATION_TYPE":"U","MEAN_ELEMENT_THEORY":"SGP4","SEMIMAJOR_AXIS":"6727.773","ELEMENT_SET_NO":"999","OBJECT_ID":"2022-001J","TIME_SYSTEM":"UTC","FILE":"3297147","INCLINATION":"53.2150"},{"REV_AT_EPOCH":"368","COUNTRY_CODE":"US","MEAN_MOTION_DOT":"0.00081922","TLE_LINE1":"1 50812U 22001K   22041.91667824  .00081922  00000-0  58309-3 0  9993","NORAD_CAT_ID":"50812","PERIOD":"91.535","RA_OF_ASC_NODE":"25.7482","GP_ID":"195716730","ARG_OF_PERICENTER":"23.0131","OBJECT_NAME":"STARLINK-3338","DECAY_DATE":null,"EPHEMERIS_TYPE":"0","INCLINATION":"53.2152","TIME_SYSTEM":"UTC","FILE":"3297147","OBJECT_ID":"2022-001K","CLASSIFICATION_TYPE":"U","MEAN_ELEMENT_THEORY":"SGP4","ELEMENT_SET_NO":"999","SEMIMAJOR_AXIS":"6727.973","BSTAR":"0.00058309000000","LAUNCH_DATE":"2022-01-06","EPOCH":"2022-02-10T22:00:00.999936","TLE_LINE2":"2 50812  53.2152  25.7482 0002014  23.0131 314.1508 15.73172852  3681","REF_FRAME":"TEME","SITE":"AFETR","MEAN_ANOMALY":"314.1508","OBJECT_TYPE":"PAYLOAD","ECCENTRICITY":"0.00020140","RCS_SIZE":"LARGE","PERIAPSIS":"348.483","MEAN_MOTION_DDOT":"0.0000000000000","MEAN_MOTION":"15.73172852","CENTER_NAME":"EARTH","APOAPSIS":"351.193"},{"REV_AT_EPOCH":"368","COUNTRY_CODE":"US","TLE_LINE1":"1 50813U 22001L   22041.91667824 -.00001528  00000-0 -64511-5 0  9994","MEAN_MOTION_DOT":"-0.00001528","NORAD_CAT_ID":"50813","PERIOD":"91.531","RA_OF_ASC_NODE":"25.7482","GP_ID":"195715479","ARG_OF_PERICENTER":"27.9003","OBJECT_NAME":"STARLINK-3349","DECAY_DATE":null,"EPHEMERIS_TYPE":"0","INCLINATION":"53.2148","TIME_SYSTEM":"UTC","FILE":"3297147","OBJECT_ID":"2022-001L","MEAN_ELEMENT_THEORY":"SGP4","CLASSIFICATION_TYPE":"U","SEMIMAJOR_AXIS":"6727.771","ELEMENT_SET_NO":"999","BSTAR":"-0.00000645110000","LAUNCH_DATE":"2022-01-06","EPOCH":"2022-02-10T22:00:00.999936","TLE_LINE2":"2 50813  53.2148  25.7482 0001696  27.9003 308.6450 15.73243675  3689","SITE":"AFETR","REF_FRAME":"TEME","MEAN_ANOMALY":"308.6450","OBJECT_TYPE":"PAYLOAD","ECCENTRICITY":"0.00016960","PERIAPSIS":"348.495","RCS_SIZE":"LARGE","MEAN_MOTION_DDOT":"0.0000000000000","MEAN_MOTION":"15.73243675","CENTER_NAME":"EARTH","APOAPSIS":"350.777"},{"EPOCH":"2022-02-10T22:00:00.999936","LAUNCH_DATE":"2022-01-06","BSTAR":"-0.00014299000000","OBJECT_TYPE":"PAYLOAD","MEAN_ANOMALY":"296.2135","REF_FRAME":"TEME","SITE":"AFETR","TLE_LINE2":"2 50814  53.2165  25.7416 0001696  43.5320 296.2135 15.73244636  3682","MEAN_MOTION_DDOT":"0.0000000000000","RCS_SIZE":"LARGE","PERIAPSIS":"348.492","ECCENTRICITY":"0.00016960","APOAPSIS":"350.774","CENTER_NAME":"EARTH","MEAN_MOTION":"15.73244636","COUNTRY_CODE":"US","REV_AT_EPOCH":"368","RA_OF_ASC_NODE":"25.7416","PERIOD":"91.531","NORAD_CAT_ID":"50814","MEAN_MOTION_DOT":"-0.00020678","TLE_LINE1":"1 50814U 22001M   22041.91667824 -.00020678  00000-0 -14299-3 0  9998","EPHEMERIS_TYPE":"0","OBJECT_NAME":"STARLINK-3324","DECAY_DATE":null,"ARG_OF_PERICENTER":"43.5320","GP_ID":"195715729","ELEMENT_SET_NO":"999","SEMIMAJOR_AXIS":"6727.768","CLASSIFICATION_TYPE":"U","MEAN_ELEMENT_THEORY":"SGP4","OBJECT_ID":"2022-001M","FILE":"3297147","TIME_SYSTEM":"UTC","INCLINATION":"53.2165"},{"BSTAR":"0.00062755000000","LAUNCH_DATE":"2022-01-06","EPOCH":"2022-02-10T22:00:00.999936","REF_FRAME":"TEME","SITE":"AFETR","TLE_LINE2":"2 50815  53.2154  25.7465 0001772  35.2344 302.5644 15.73185616  3682","OBJECT_TYPE":"PAYLOAD","MEAN_ANOMALY":"302.5644","ECCENTRICITY":"0.00017720","PERIAPSIS":"348.609","RCS_SIZE":"LARGE","MEAN_MOTION_DDOT":"0.0000000000000","MEAN_MOTION":"15.73185616","CENTER_NAME":"EARTH","APOAPSIS":"350.993","REV_AT_EPOCH":"368","COUNTRY_CODE":"US","MEAN_MOTION_DOT":"0.00088331","TLE_LINE1":"1 50815U 22001N   22041.91667824  .00088331  00000-0  62755-3 0  9997","PERIOD":"91.534","NORAD_CAT_ID":"50815","RA_OF_ASC_NODE":"25.7465","GP_ID":"195716481","ARG_OF_PERICENTER":"35.2344","DECAY_DATE":null,"OBJECT_NAME":"STARLINK-3234","EPHEMERIS_TYPE":"0","INCLINATION":"53.2154","FILE":"3297147","TIME_SYSTEM":"UTC","OBJECT_ID":"2022-001N","ELEMENT_SET_NO":"999","SEMIMAJOR_AXIS":"6727.936","MEAN_ELEMENT_THEORY":"SGP4","CLASSIFICATION_TYPE":"U"}];
